INTELSAT 34             
1 40874C 15039A   21200.00000000 -.00000199  00000-0  00000-0 0  2001
2 40874   0.0381 283.5146 0000736 114.9523 203.0513  1.00270507    14
INTELSAT 31             
1 41581C 16035A   21195.91298611 -.00000080  00000-0  00000-0 0  1956
2 41581   0.0039 318.5413 0001466 274.6114 293.4499  1.00269146    10
INTELSAT 31         [PM]
1 41581C 16035A   21196.16054398 -.00000079  00000-0  00000-0 0  1965
2 41581   0.0128 296.7735 0001364 288.6304  30.5584  1.00272322    11
INTELSAT 31             
1 41581C 16035A   21200.00000000 -.00000057  00000-0  00000-0 0  2007
2 41581   0.0192 280.9468 0001382 288.7270 352.2784  1.00270616    13
INTELSAT 36             
1 41747C 16053A   21195.91298611  .00000066  00000-0  00000-0 0  1953
2 41747   0.0078  15.7394 0002926 359.2867 315.1264  1.00269830    10
INTELSAT 36         [PM]
1 41747C 16053A   21197.25902778  .00000066  00000-0  00000-0 0  1970
2 41747   0.0179 338.2145 0002884  28.0713  89.7616  1.00271428    14
INTELSAT 36             
1 41747C 16053A   21200.00000000  .00000066  00000-0  00000-0 0  2000
2 41747   0.0124  11.8961 0002955  10.4275 343.1713  1.00270545    15
INTELSAT 33E            
1 41748C 16053B   21196.00000000  .00000139  00000-0  00000-0 0  1960
2 41748   0.0181 357.4288 0001707 144.4949 211.1490  1.00271717    18
INTELSAT 33E            
1 41748C 16053B   21200.00000000  .00000139  00000-0  00000-0 0  2002
2 41748   0.0194  24.4974 0001830  85.2203 247.2850  1.00270631    11
INTELSAT 33E        [PM]
1 41748C 16053B   21201.81759259  .00000139  00000-0  00000-0 0  2010
2 41748   0.0194   8.4199 0001963 110.6920 174.0041  1.00271154    18
INTELSAT 32E            
1 41945C 17007B   21196.00000000 -.00000079  00000-0  00000-0 0  1963
2 41945   0.0048  80.4210 0000643 277.4657 251.9946  1.00269818    15
INTELSAT 32E            
1 41945C 17007B   21200.00000000 -.00000197  00000-0  00000-0 0  2006
2 41945   0.0013  43.1722 0000754 349.1570 221.5076  1.00270304    14
INTELSAT 32E        [PM]
1 41945C 17007B   21202.23702546 -.00000178  00000-0  00000-0 0  2028
2 41945   0.0038  55.4990 0000905 323.2527 322.5932  1.00274095    11
INTELSAT 35E            
1 42818C 17041A   21196.00000000 -.00003709  00000-0  00000-0 0  1964
2 42818   0.0432 233.2715 0001573 225.3987 159.8928  1.00273129    17
INTELSAT 35E            
1 42818C 17041A   21200.00000000 -.00000149  00000-0  00000-0 0  2001
2 42818   0.0397 235.1733 0001717 237.0507 150.2847  1.00269912    16
INTELSAT 35E        [PM]
1 42818C 17041A   21202.54416667 -.00000201  00000-0  00000-0 0  2023
2 42818   0.0307 209.2359 0001560 267.7776 343.8806  1.00272243    13
INTELSAT 37E            
1 42950C 17059A   21196.00000000 -.00000050  00000-0  00000-0 0  1966
2 42950   0.0039  91.2218 0002559  29.7893 154.0659  1.00271217    18
INTELSAT 37E            
1 42950C 17059A   21200.00000000 -.00000050  00000-0  00000-0 0  2008
2 42950   0.0001  43.8977 0003034  83.6077 151.4980  1.00270764    18
INTELSAT 37E        [PM]
1 42950C 17059A   21201.77430556 -.00000046  00000-0  00000-0 0  2012
2 42950   0.0056  72.8737 0003022  54.4091  72.2082  1.00272295    17
AZERSPACE 2             
1 43632C 18074A   21195.91298611  .00000228  00000-0  00000-0 0  1953
2 43632   0.0050  80.1911 0001389  32.7818 193.7916  1.00270971    19
AZERSPACE 2             
1 43632C 18074A   21200.00000000  .00000228  00000-0  00000-0 0  2000
2 43632   0.0020  48.8416 0001717  64.0293 229.2433  1.00270203    14
HORIZONS 3E             
1 43633C 18074B   21195.91298611 -.00003522  00000-0  00000-0 0  1955
2 43633   0.0004 157.7167 0000575 103.3458 169.5992  1.00270664    18
HORIZONS 3E             
1 43633C 18074B   21200.00000000  .00000033  00000-0  00000-0 0  2005
2 43633   0.0137 284.8484 0000358 315.9953 225.1613  1.00269271    10
INTELSAT 39         [PM]
1 44476C 19049B   21194.97457176 -.00003270  00000-0  00000-0 0  1941
2 44476   0.0086 334.3645 0001138   2.2072   8.2769  1.00271334    19
INTELSAT 39             
1 44476C 19049B   21195.91298611  .00000117  00000-0  00000-0 0  1950
2 44476   0.0001   7.2142 0001100 345.3506 331.0369  1.00270554    12
INTELSAT 39             
1 44476C 19049B   21200.00000000  .00000197  00000-0  00000-0 0  2005
2 44476   0.0043   0.4924 0001029  11.0164 347.4433  1.00271078    13
INTELSAT 39         [PM]
1 44476C 19049B   21202.45570602  .00000132  00000-0  00000-0 0  2027
2 44476   0.0001  22.2191 0000935 354.4552 148.7453  1.00271627    19
GALAXY 30               
1 46114C 20056C   21196.00000000 -.00003456  00000-0  00000-0 0  1966
2 46114   0.0000 359.4986 0001949 133.4783  35.0819  1.00272134    11
GALAXY 30               
1 46114C 20056C   21200.00000000  .00000129  00000-0  00000-0 0  2001
2 46114   0.0033  62.4684 0002355  68.5784  40.9600  1.00270052    14
GALAXY 30           [PM]
1 46114C 20056C   21201.80208333 -.00004738  00000-0  00000-0 0  2011
2 46114   0.0001  13.0290 0002547 124.0800 325.4159  1.00271031    12
